DELTA 2 R/B(1)          
1 20453U 90008B   26043.19301809  .00079978  00000+0  10444-2 0  9991
2 20453  35.6052 341.7229 0092440  20.4748 339.9657 15.52436033922163
COSMOS 2058             
1 20465U 90010A   26043.55286540  .00004436  00000+0  26299-3 0  9994
2 20465  82.4652  72.1917 0011682  67.0916 293.1546 15.11086455938444
SL-14 R/B               
1 20466U 90010B   26043.19191698  .00000479  00000+0  55050-4 0  9995
2 20466  82.5023 291.3413 0020580  27.8969 332.3345 14.83546915924700
SL-14 R/B               
1 20511U 90018B   26043.59021028  .00000444  00000+0  52729-4 0  9999
2 20511  82.5180 246.5548 0016499 169.7588 190.3966 14.82117702918861
HST                     
1 20580U 90037B   26043.55698574  .00007719  00000+0  25780-3 0  9996
2 20580  28.4658 211.3954 0001557 177.4497 182.6106 15.29075564769462
SL-16 R/B               
1 20625U 90046B   26043.31885521  .00000322  00000+0  19087-3 0  9996
2 20625  71.0009 351.1944 0014927 335.0034  25.0364 14.15008374844809
COSMOS 2084             
1 20663U 90055A   26043.48299229  .00002867  00000+0  21157-3 0  9997
2 20663  62.7896  61.5378 0021046 184.6655 175.4252 15.05485153932529
SL-6 R/B(2)             
1 20666U 90055D   26043.23199247  .00003074  00000+0  23810-3 0  9991
2 20666  62.7847 340.4143 0020940 340.0558  19.9720 15.03464027934360
SL-8 R/B                
1 20775U 90078B   26043.57082997  .00015394  00000+0  45258-3 0  9995
2 20775  82.9023 273.8857 0366693  98.1574 266.1404 14.88223987805563
SL-8 R/B                
1 21088U 91006B   26043.49260443  .00000029  00000+0  13819-4 0  9998
2 21088  82.9439 188.7781 0023737 105.4062 318.5244 13.77492206760603
OKEAN-3                 
1 21397U 91039A   26043.34249616  .00004453  00000+0  31444-3 0  9998
2 21397  82.5176   1.3910 0016379  60.3606 299.9250 15.04601542861227
COSMOS 2151             
1 21422U 91042A   26043.60185665  .00001880  00000+0  14876-3 0  9994
2 21422  82.4959 107.8781 0013543 139.4040 220.8196 15.00008890859437
