CCSDS_OMM_VERS = 2.0
CREATION_DATE  = 
ORIGINATOR     = 

OBJECT_NAME    = DELTA 2 R/B(1)
OBJECT_ID      = 1990-008B
CENTER_NAME    = EARTH
REF_FRAME      = TEME
TIME_SYSTEM    = UTC
MEAN_ELEMENT_THEORY = SGP/SGP4

EPOCH          = 2026-02-12T04:37:56.762976
MEAN_MOTION    = 15.52436033
ECCENTRICITY   = .009244
INCLINATION    = 35.6052
RA_OF_ASC_NODE = 341.7229
ARG_OF_PERICENTER = 20.4748
MEAN_ANOMALY   = 339.9657

EPHEMERIS_TYPE = 0
CLASSIFICATION_TYPE = U
NORAD_CAT_ID   = 20453
ELEMENT_SET_NO = 999
REV_AT_EPOCH   = 92216
BSTAR          = .10444E-2
MEAN_MOTION_DOT = .79978E-3
MEAN_MOTION_DDOT = 0

CCSDS_OMM_VERS = 2.0
CREATION_DATE  = 
ORIGINATOR     = 

OBJECT_NAME    = COSMOS 2058
OBJECT_ID      = 1990-010A
CENTER_NAME    = EARTH
REF_FRAME      = TEME
TIME_SYSTEM    = UTC
MEAN_ELEMENT_THEORY = SGP/SGP4

EPOCH          = 2026-02-12T13:16:07.570560
MEAN_MOTION    = 15.11086455
ECCENTRICITY   = .00116825
INCLINATION    = 82.4652
RA_OF_ASC_NODE = 72.1917
ARG_OF_PERICENTER = 67.0916
MEAN_ANOMALY   = 293.1546

EPHEMERIS_TYPE = 0
CLASSIFICATION_TYPE = U
NORAD_CAT_ID   = 20465
ELEMENT_SET_NO = 999
REV_AT_EPOCH   = 93844
BSTAR          = .26298985E-3
MEAN_MOTION_DOT = .4436E-4
MEAN_MOTION_DDOT = 0

CCSDS_OMM_VERS = 2.0
CREATION_DATE  = 
ORIGINATOR     = 

OBJECT_NAME    = SL-14 R/B
OBJECT_ID      = 1990-010B
CENTER_NAME    = EARTH
REF_FRAME      = TEME
TIME_SYSTEM    = UTC
MEAN_ELEMENT_THEORY = SGP/SGP4

EPOCH          = 2026-02-12T04:36:21.627072
MEAN_MOTION    = 14.83546915
ECCENTRICITY   = .002058
INCLINATION    = 82.5023
RA_OF_ASC_NODE = 291.3413
ARG_OF_PERICENTER = 27.8969
MEAN_ANOMALY   = 332.3345

EPHEMERIS_TYPE = 0
CLASSIFICATION_TYPE = U
NORAD_CAT_ID   = 20466
ELEMENT_SET_NO = 999
REV_AT_EPOCH   = 92470
BSTAR          = .5505E-4
MEAN_MOTION_DOT = .479E-5
MEAN_MOTION_DDOT = 0

CCSDS_OMM_VERS = 2.0
CREATION_DATE  = 
ORIGINATOR     = 

OBJECT_NAME    = SL-14 R/B
OBJECT_ID      = 1990-018B
CENTER_NAME    = EARTH
REF_FRAME      = TEME
TIME_SYSTEM    = UTC
MEAN_ELEMENT_THEORY = SGP/SGP4

EPOCH          = 2026-02-12T14:09:54.168192
MEAN_MOTION    = 14.82117702
ECCENTRICITY   = .00164996
INCLINATION    = 82.5180
RA_OF_ASC_NODE = 246.5548
ARG_OF_PERICENTER = 169.7588
MEAN_ANOMALY   = 190.3966

EPHEMERIS_TYPE = 0
CLASSIFICATION_TYPE = U
NORAD_CAT_ID   = 20511
ELEMENT_SET_NO = 999
REV_AT_EPOCH   = 91886
BSTAR          = .52729181E-4
MEAN_MOTION_DOT = .444E-5
MEAN_MOTION_DDOT = 0

CCSDS_OMM_VERS = 2.0
CREATION_DATE  = 
ORIGINATOR     = 

OBJECT_NAME    = HST
OBJECT_ID      = 1990-037B
CENTER_NAME    = EARTH
REF_FRAME      = TEME
TIME_SYSTEM    = UTC
MEAN_ELEMENT_THEORY = SGP/SGP4

EPOCH          = 2026-02-12T13:22:03.567936
MEAN_MOTION    = 15.29075564
ECCENTRICITY   = .00015575
INCLINATION    = 28.4658
RA_OF_ASC_NODE = 211.3954
ARG_OF_PERICENTER = 177.4497
MEAN_ANOMALY   = 182.6106

EPHEMERIS_TYPE = 0
CLASSIFICATION_TYPE = U
NORAD_CAT_ID   = 20580
ELEMENT_SET_NO = 999
REV_AT_EPOCH   = 76946
BSTAR          = .25780469E-3
MEAN_MOTION_DOT = .7719E-4
MEAN_MOTION_DDOT = 0

CCSDS_OMM_VERS = 2.0
CREATION_DATE  = 
ORIGINATOR     = 

OBJECT_NAME    = SL-16 R/B
OBJECT_ID      = 1990-046B
CENTER_NAME    = EARTH
REF_FRAME      = TEME
TIME_SYSTEM    = UTC
MEAN_ELEMENT_THEORY = SGP/SGP4

EPOCH          = 2026-02-12T07:39:09.090144
MEAN_MOTION    = 14.15008374
ECCENTRICITY   = .00149278
INCLINATION    = 71.0009
RA_OF_ASC_NODE = 351.1944
ARG_OF_PERICENTER = 335.0034
MEAN_ANOMALY   = 25.0364

EPHEMERIS_TYPE = 0
CLASSIFICATION_TYPE = U
NORAD_CAT_ID   = 20625
ELEMENT_SET_NO = 999
REV_AT_EPOCH   = 84480
BSTAR          = .19087271E-3
MEAN_MOTION_DOT = .322E-5
MEAN_MOTION_DDOT = 0

CCSDS_OMM_VERS = 2.0
CREATION_DATE  = 
ORIGINATOR     = 

OBJECT_NAME    = COSMOS 2084
OBJECT_ID      = 1990-055A
CENTER_NAME    = EARTH
REF_FRAME      = TEME
TIME_SYSTEM    = UTC
MEAN_ELEMENT_THEORY = SGP/SGP4

EPOCH          = 2026-02-12T11:35:30.533856
MEAN_MOTION    = 15.05485153
ECCENTRICITY   = .00210461
INCLINATION    = 62.7896
RA_OF_ASC_NODE = 61.5378
ARG_OF_PERICENTER = 184.6655
MEAN_ANOMALY   = 175.4252

EPHEMERIS_TYPE = 0
CLASSIFICATION_TYPE = U
NORAD_CAT_ID   = 20663
ELEMENT_SET_NO = 999
REV_AT_EPOCH   = 93252
BSTAR          = .21157132E-3
MEAN_MOTION_DOT = .2867E-4
MEAN_MOTION_DDOT = 0

CCSDS_OMM_VERS = 2.0
CREATION_DATE  = 
ORIGINATOR     = 

OBJECT_NAME    = SL-6 R/B(2)
OBJECT_ID      = 1990-055D
CENTER_NAME    = EARTH
REF_FRAME      = TEME
TIME_SYSTEM    = UTC
MEAN_ELEMENT_THEORY = SGP/SGP4

EPOCH          = 2026-02-12T05:34:04.149408
MEAN_MOTION    = 15.03464027
ECCENTRICITY   = .002094
INCLINATION    = 62.7847
RA_OF_ASC_NODE = 340.4143
ARG_OF_PERICENTER = 340.0558
MEAN_ANOMALY   = 19.9720

EPHEMERIS_TYPE = 0
CLASSIFICATION_TYPE = U
NORAD_CAT_ID   = 20666
ELEMENT_SET_NO = 999
REV_AT_EPOCH   = 93436
BSTAR          = .2381E-3
MEAN_MOTION_DOT = .3074E-4
MEAN_MOTION_DDOT = 0

CCSDS_OMM_VERS = 2.0
CREATION_DATE  = 
ORIGINATOR     = 

OBJECT_NAME    = SL-8 R/B
OBJECT_ID      = 1990-078B
CENTER_NAME    = EARTH
REF_FRAME      = TEME
TIME_SYSTEM    = UTC
MEAN_ELEMENT_THEORY = SGP/SGP4

EPOCH          = 2026-02-12T13:41:59.709408
MEAN_MOTION    = 14.88223987
ECCENTRICITY   = .03666932
INCLINATION    = 82.9023
RA_OF_ASC_NODE = 273.8857
ARG_OF_PERICENTER = 98.1574
MEAN_ANOMALY   = 266.1404

EPHEMERIS_TYPE = 0
CLASSIFICATION_TYPE = U
NORAD_CAT_ID   = 20775
ELEMENT_SET_NO = 999
REV_AT_EPOCH   = 80556
BSTAR          = .45258298E-3
MEAN_MOTION_DOT = .15394E-3
MEAN_MOTION_DDOT = 0

CCSDS_OMM_VERS = 2.0
CREATION_DATE  = 
ORIGINATOR     = 

OBJECT_NAME    = SL-8 R/B
OBJECT_ID      = 1991-006B
CENTER_NAME    = EARTH
REF_FRAME      = TEME
TIME_SYSTEM    = UTC
MEAN_ELEMENT_THEORY = SGP/SGP4

EPOCH          = 2026-02-12T11:49:21.022752
MEAN_MOTION    = 13.77492206
ECCENTRICITY   = .00237379
INCLINATION    = 82.9439
RA_OF_ASC_NODE = 188.7781
ARG_OF_PERICENTER = 105.4062
MEAN_ANOMALY   = 318.5244

EPHEMERIS_TYPE = 0
CLASSIFICATION_TYPE = U
NORAD_CAT_ID   = 21088
ELEMENT_SET_NO = 999
REV_AT_EPOCH   = 76060
BSTAR          = .13818924E-4
MEAN_MOTION_DOT = .29E-6
MEAN_MOTION_DDOT = 0

CCSDS_OMM_VERS = 2.0
CREATION_DATE  = 
ORIGINATOR     = 

OBJECT_NAME    = OKEAN-3
OBJECT_ID      = 1991-039A
CENTER_NAME    = EARTH
REF_FRAME      = TEME
TIME_SYSTEM    = UTC
MEAN_ELEMENT_THEORY = SGP/SGP4

EPOCH          = 2026-02-12T08:13:11.668224
MEAN_MOTION    = 15.04601542
ECCENTRICITY   = .00163797
INCLINATION    = 82.5176
RA_OF_ASC_NODE = 1.3910
ARG_OF_PERICENTER = 60.3606
MEAN_ANOMALY   = 299.9250

EPHEMERIS_TYPE = 0
CLASSIFICATION_TYPE = U
NORAD_CAT_ID   = 21397
ELEMENT_SET_NO = 999
REV_AT_EPOCH   = 86122
BSTAR          = .3144402E-3
MEAN_MOTION_DOT = .4453E-4
MEAN_MOTION_DDOT = 0

CCSDS_OMM_VERS = 2.0
CREATION_DATE  = 
ORIGINATOR     = 

OBJECT_NAME    = COSMOS 2151
OBJECT_ID      = 1991-042A
CENTER_NAME    = EARTH
REF_FRAME      = TEME
TIME_SYSTEM    = UTC
MEAN_ELEMENT_THEORY = SGP/SGP4

EPOCH          = 2026-02-12T14:26:40.414560
MEAN_MOTION    = 15.00008890
ECCENTRICITY   = .00135436
INCLINATION    = 82.4959
RA_OF_ASC_NODE = 107.8781
ARG_OF_PERICENTER = 139.4040
MEAN_ANOMALY   = 220.8196

EPHEMERIS_TYPE = 0
CLASSIFICATION_TYPE = U
NORAD_CAT_ID   = 21422
ELEMENT_SET_NO = 999
REV_AT_EPOCH   = 85943
BSTAR          = .14876264E-3
MEAN_MOTION_DOT = .188E-4
MEAN_MOTION_DDOT = 0

